
# Worst residual: 25.35 km
# MJD 58907.000000 (2020 Feb 28  0:00)
1969-046D = NORAD 03954 = Vela 5a
1 03954U 69046D   20059.49919926  .00000000  00000-0  00000-0 0  7225
2 03954 035.3429 188.2726 7995145 066.3753 029.1264 00.21543541    02

# Worst residual: 6.64 km
# MJD 58908.000000 (2020 Feb 29  0:00)
1969-046D = NORAD 03954 = Vela 5a
1 03954U 69046D   20060.49919926  .00000000  00000-0  00000-0 0  7227
2 03954 035.2619 188.0773 8007756 066.4940 106.4778 00.21507984    04

# Worst residual: 6.17 km
# MJD 58909.000000 (2020 Mar  1  0:00)
1969-046D = NORAD 03954 = Vela 5a
1 03954U 69046D   20061.49919926  .00000000  00000-0  00000-0 0  7228
2 03954 035.2163 187.9070 8012368 066.5976 184.0324 00.21511304    01

# Worst residual: 5.99 km
# MJD 58910.000000 (2020 Mar  2  0:00)
1969-046D = NORAD 03954 = Vela 5a
1 03954U 69046D   20062.49919926  .00000000  00000-0  00000-0 0  7229
2 03954 035.1998 187.8485 8016461 066.5944 261.6869 00.21503941    02

# Worst residual: 19.25 km
# MJD 58911.000000 (2020 Mar  3  0:00)
1969-046D = NORAD 03954 = Vela 5a
1 03954U 69046D   20063.49919926  .00000000  00000-0  00000-0 0  7220
2 03954 035.1780 187.7178 8019261 066.6976 339.1482 00.21525774    06

# Worst residual: 11.27 km
# MJD 58912.000000 (2020 Mar  4  0:00)
1969-046D = NORAD 03954 = Vela 5a
1 03954U 69046D   20064.49919926  .00000000  00000-0  00000-0 0  7221
2 03954 035.1477 187.5952 8024278 066.7328 056.7168 00.21536463    03

# Worst residual: 5.75 km
# MJD 58913.000000 (2020 Mar  5  0:00)
1969-046D = NORAD 03954 = Vela 5a
1 03954U 69046D   20065.49919926  .00000000  00000-0  00000-0 0  7222
2 03954 035.1608 187.5588 8027609 066.7610 134.2165 00.21522461    01

# Worst residual: 4.14 km
# MJD 58914.000000 (2020 Mar  6  0:00)
1969-046D = NORAD 03954 = Vela 5a
1 03954U 69046D   20066.49919926  .00000000  00000-0  00000-0 0  7223
2 03954 035.1764 187.5881 8033543 066.7041 211.8336 00.21528271    09

# Worst residual: 14.15 km
# MJD 58915.000000 (2020 Mar  7  0:00)
1969-046D = NORAD 03954 = Vela 5a
1 03954U 69046D   20067.49919926  .00000000  00000-0  00000-0 0  7224
2 03954 035.1545 187.4943 8038573 066.7916 289.3288 00.21546723    01

# Worst residual: 42.86 km
# MJD 58916.000000 (2020 Mar  8  0:00)
1969-046D = NORAD 03954 = Vela 5a
1 03954U 69046D   20068.49919926  .00000000  00000-0  00000-0 0  7225
2 03954 035.1344 187.3402 8027836 066.8274 006.9132 00.21637164    06

# Worst residual: 15.15 km
# MJD 58917.000000 (2020 Mar  9  0:00)
1969-046D = NORAD 03954 = Vela 5a
1 03954U 69046D   20069.49919926  .00000000  00000-0  00000-0 0  7226
2 03954 035.1087 187.2264 8048140 066.8562 084.3057 00.21526542    09

# Worst residual: 4.37 km
# MJD 58918.000000 (2020 Mar 10  0:00)
1969-046D = NORAD 03954 = Vela 5a
1 03954U 69046D   20070.49919926  .00000000  00000-0  00000-0 0  7228
2 03954 035.0835 187.1065 8052988 066.9890 161.5251 00.21499406    09

# Worst residual: 4.73 km
# MJD 58919.000000 (2020 Mar 11  0:00)
1969-046D = NORAD 03954 = Vela 5a
1 03954U 69046D   20071.49919926  .00000000  00000-0  00000-0 0  7229
2 03954 035.0620 187.0066 8055092 067.0488 238.9815 00.21495931    09

# Worst residual: 14.46 km
# MJD 58920.000000 (2020 Mar 12  0:00)
1969-046D = NORAD 03954 = Vela 5a
1 03954U 69046D   20072.49919926  .00000000  00000-0  00000-0 0  7220
2 03954 035.0375 186.9229 8061512 067.0857 316.5276 00.21478181    01

# Worst residual: 30.95 km
# MJD 58921.000000 (2020 Mar 13  0:00)
1969-046D = NORAD 03954 = Vela 5a
1 03954U 69046D   20073.49919926  .00000000  00000-0  00000-0 0  7221
2 03954 035.0059 186.8026 8062260 067.1963 034.0844 00.21576048    08

# Worst residual: 8.67 km
# MJD 58922.000000 (2020 Mar 14  0:00)
1969-046D = NORAD 03954 = Vela 5a
1 03954U 69046D   20074.49919926  .00000000  00000-0  00000-0 0  7222
2 03954 034.9683 186.6690 8070811 067.3265 111.4114 00.21514494    09

# Worst residual: 6.67 km
# MJD 58923.000000 (2020 Mar 15  0:00)
1969-046D = NORAD 03954 = Vela 5a
1 03954U 69046D   20075.49919926  .00000000  00000-0  00000-0 0  7223
2 03954 034.9758 186.6508 8070527 067.3612 188.7267 00.21498828    08

# Worst residual: 5.29 km
# MJD 58924.000000 (2020 Mar 16  0:00)
1969-046D = NORAD 03954 = Vela 5a
1 03954U 69046D   20076.49919926  .00000000  00000-0  00000-0 0  7224
2 03954 034.9666 186.6280 8073247 067.3812 266.0861 00.21505733    01

# Worst residual: 28.78 km
# MJD 58925.000000 (2020 Mar 17  0:00)
1969-046D = NORAD 03954 = Vela 5a
1 03954U 69046D   20077.49919926  .00000000  00000-0  00000-0 0  7225
2 03954 034.9474 186.4687 8071077 067.5186 343.4736 00.21566358    03

# Worst residual: 14.65 km
# MJD 58926.000000 (2020 Mar 18  0:00)
1969-046D = NORAD 03954 = Vela 5a
1 03954U 69046D   20078.49919926  .00000000  00000-0  00000-0 0  7226
2 03954 034.9126 186.3298 8078732 067.5660 061.0856 00.21545051    09

# Worst residual: 3.29 km
# MJD 58927.000000 (2020 Mar 19  0:00)
1969-046D = NORAD 03954 = Vela 5a
1 03954U 69046D   20079.49919926  .00000000  00000-0  00000-0 0  7227
2 03954 034.8873 186.2060 8080768 067.7001 138.4685 00.21513067    07

# Worst residual: 3.39 km
# MJD 58928.000000 (2020 Mar 20  0:00)
1969-046D = NORAD 03954 = Vela 5a
1 03954U 69046D   20080.49919926  .00000000  00000-0  00000-0 0  7229
2 03954 034.8556 186.0527 8080294 067.8130 215.9311 00.21505638    01

# Worst residual: 8.11 km
# MJD 58929.000000 (2020 Mar 21  0:00)
1969-046D = NORAD 03954 = Vela 5a
1 03954U 69046D   20081.49919926  .00000000  00000-0  00000-0 0  7220
2 03954 034.8259 185.8812 8079347 067.9285 293.3559 00.21506039    04

# Worst residual: 31.91 km
# MJD 58930.000000 (2020 Mar 22  0:00)
1969-046D = NORAD 03954 = Vela 5a
1 03954U 69046D   20082.49919926  .00000000  00000-0  00000-0 0  7221
2 03954 034.8008 185.7548 8073748 067.9951 010.8538 00.21589698    01

# Worst residual: 8.64 km
# MJD 58931.000000 (2020 Mar 23  0:00)
1969-046D = NORAD 03954 = Vela 5a
1 03954U 69046D   20083.49919926  .00000000  00000-0  00000-0 0  7222
2 03954 034.7774 185.6245 8089293 068.0252 088.3045 00.21532932    03

# Worst residual: 6.95 km
# MJD 58932.000000 (2020 Mar 24  0:00)
1969-046D = NORAD 03954 = Vela 5a
1 03954U 69046D   20084.49919926  .00000000  00000-0  00000-0 0  7223
2 03954 034.7600 185.5154 8090043 068.1060 165.8462 00.21523227    03

# Worst residual: 12.36 km
# MJD 58933.000000 (2020 Mar 25  0:00)
1969-046D = NORAD 03954 = Vela 5a
1 03954U 69046D   20085.49919926  .00000000  00000-0  00000-0 0  7224
2 03954 034.7458 185.4510 8085454 068.0823 243.5984 00.21500361    02

# Worst residual: 17.49 km
# MJD 58934.000000 (2020 Mar 26  0:00)
1969-046D = NORAD 03954 = Vela 5a
1 03954U 69046D   20086.49919926  .00000000  00000-0  00000-0 0  7225
2 03954 034.7211 185.3853 8088860 068.0353 321.2473 00.21438179    04

# Worst residual: 22.69 km
# MJD 58935.000000 (2020 Mar 27  0:00)
1969-046D = NORAD 03954 = Vela 5a
1 03954U 69046D   20087.49919926  .00000000  00000-0  00000-0 0  7226
2 03954 034.6855 185.2678 8089817 068.1478 038.6957 00.21544067    03
